NORAD_CAT_ID,OBJECT_NAME,OBJECT_TYPE,EPOCH,MEAN_MOTION,ECCENTRICITY,INCLINATION,RA_OF_ASC_NODE,ARG_OF_PERICENTER,MEAN_ANOMALY,BSTAR,MEAN_MOTION_DOT,MEAN_MOTION_DDOT,TLE_LINE0,TLE_LINE1,TLE_LINE2,SEMIMAJOR_AXIS,PERIOD,APOGEE,PERIGEE,DECAYED
52354.0,STARLINK-3876,PAYLOAD,2023-02-12 11:52:26,15.08834761,0.0001089,53.2134,192.3658,84.0982,276.0134,7.1274e-05,8.47e-06,0.0,0 STARLINK-3876,1 52354U 22045Z   23043.49475642  .00000847  00000-0  71274-4 0  9999,2 52354  53.2134 192.3658 0001089  84.0982 276.0134 15.08834761 46525,6917.896,95.438,540.515,539.008,0.0
52354.0,STARLINK-3876,PAYLOAD,2023-02-13 02:10:54,15.08842501,8.07e-05,53.2144,189.6907,86.659,273.4494,8.4268e-05,1.054e-05,0.0,0 STARLINK-3876,1 52354U 22045Z   23044.09091004  .00001054  00000-0  84268-4 0  9990,2 52354  53.2144 189.6907 0000807  86.6590 273.4494 15.08842501 46613,6917.873,95.437,540.296,539.179,0.0
52354.0,STARLINK-3876,PAYLOAD,2023-02-13 10:07:51,15.08837033,0.0001303,53.2137,188.2064,86.5688,273.5453,7.1101e-06,-1.75e-06,0.0,0 STARLINK-3876,1 52354U 22045Z   23044.42211838 -.00000175  00000-0  71101-5 0  9993,2 52354  53.2137 188.2064 0001303  86.5688 273.5453 15.08837033 46668,6917.889,95.438,540.656,538.853,0.0
52354.0,STARLINK-3876,PAYLOAD,2023-02-13 19:40:09,15.08845868,0.0001214,53.2133,186.4181,92.7117,267.4014,9.124e-05,1.165e-05,0.0,0 STARLINK-3876,1 52354U 22045Z   23044.81954993  .00001165  00000-0  91240-4 0  9996,2 52354  53.2133 186.4181 0001214  92.7117 267.4014 15.08845868 46728,6917.862,95.437,540.567,538.888,0.0
52354.0,STARLINK-3876,PAYLOAD,2023-02-14 09:58:38,15.08833684,0.0001221,53.2146,183.7446,85.3881,274.7251,2.8385e-05,1.64e-06,0.0,0 STARLINK-3876,1 52354U 22045Z   23045.41572045  .00000164  00000-0  28385-4 0  9995,2 52354  53.2146 183.7446 0001221  85.3881 274.7251 15.08833684 46817,6917.9,95.438,540.609,538.92,0.0
52354.0,STARLINK-3876,PAYLOAD,2023-02-14 17:55:32,15.08850602,0.0001147,53.2141,182.2543,83.5011,276.6112,5.8427e-05,6.42e-06,0.0,0 STARLINK-3876,1 52354U 22045Z   23045.74690800  .00000642  00000-0  58427-4 0  9992,2 52354  53.2141 182.2543 0001147  83.5011 276.6112 15.08850602 46867,6917.848,95.437,540.506,538.92,0.0
52354.0,STARLINK-3876,PAYLOAD,2023-02-15 03:27:52,15.08835716,0.0001317,53.2117,180.4695,82.3956,277.7186,1.4528e-05,-5.7e-07,0.0,0 STARLINK-3876,1 52354U 22045Z   23046.14435873 -.00000057  00000-0  14528-4 0  9999,2 52354  53.2117 180.4695 0001317  82.3956 277.7186 15.08835716 46921,6917.893,95.438,540.67,538.847,0.0
52354.0,STARLINK-3876,PAYLOAD,2023-02-15 13:00:08,15.08868899,0.0001451,53.2144,178.6882,112.2397,247.8749,0.00028678,4.283e-05,0.0,0 STARLINK-3876,1 52354U 22045Z   23046.54176590  .00004283  00000-0  28678-3 0  9995,2 52354  53.2144 178.6882 0001451 112.2397 247.8749 15.08868899 46986,6917.792,95.436,540.661,538.653,0.0
52354.0,STARLINK-3876,PAYLOAD,2023-02-16 08:04:45,15.08861388,0.0001341,53.2134,175.1202,88.2723,271.8422,0.00020636,3e-05,0.0,0 STARLINK-3876,1 52354U 22045Z   23047.33664223  .00003000  00000-0  20636-3 0  9990,2 52354  53.2134 175.1202 0001341  88.2723 271.8422 15.08861388 47102,6917.815,95.436,540.608,538.752,0.0
52354.0,STARLINK-3876,PAYLOAD,2023-02-16 14:26:19,15.0884467,0.0001088,53.214,173.9276,73.5821,286.5291,0.00013601,1.878e-05,0.0,0 STARLINK-3876,1 52354U 22045Z   23047.60161226  .00001878  00000-0  13601-3 0  9990,2 52354  53.2140 173.9276 0001088  73.5821 286.5291 15.08844670 47146,6917.866,95.437,540.484,538.978,0.0
52354.0,STARLINK-3876,PAYLOAD,2023-02-17 14:17:08,15.08835458,0.0001791,53.2117,169.4697,64.4342,295.6835,-0.00031877,-5.357e-05,0.0,0 STARLINK-3876,1 52354U 22045Z   23048.59523732 -.00005357  00000-0 -31877-3 0  9996,2 52354  53.2117 169.4697 0001791  64.4342 295.6835 15.08835458 47290,6917.894,95.438,540.998,538.52,0.0
52354.0,STARLINK-3876,PAYLOAD,2023-02-18 14:07:55,15.08820998,0.00014,53.2127,165.0067,65.24,294.8738,1.4519e-05,-5.7e-07,0.0,0 STARLINK-3876,1 52354U 22045Z   23049.58884126 -.00000057  00000-0  14519-4 0  9999,2 52354  53.2127 165.0067 0001400  65.2400 294.8738 15.08820998 47448,6917.938,95.439,540.772,538.835,0.0
52354.0,STARLINK-3876,PAYLOAD,2023-02-19 13:58:42,15.0883687,0.0001619,53.2129,160.5465,50.7516,309.362,0.00032751,4.928e-05,0.0,0 STARLINK-3876,1 52354U 22045Z   23050.58243296  .00004928  00000-0  32751-3 0  9995,2 52354  53.2129 160.5465 0001619  50.7516 309.3620 15.08836870 47595,6917.89,95.438,540.875,538.635,0.0
52354.0,STARLINK-3876,PAYLOAD,2023-02-20 13:49:30,15.0883931,0.0001608,53.2137,156.0854,50.6534,309.46,0.0001307,1.793e-05,0.0,0 STARLINK-3876,1 52354U 22045Z   23051.57604374  .00001793  00000-0  13070-3 0  9993,2 52354  53.2137 156.0854 0001608  50.6534 309.4600 15.08839310 47741,6917.882,95.438,540.86,538.635,0.0
52354.0,STARLINK-3876,PAYLOAD,2023-02-21 13:40:16,15.08855648,0.0001478,53.2134,151.6251,55.0835,305.0296,4.5981e-05,4.44e-06,0.0,0 STARLINK-3876,1 52354U 22045Z   23052.56963589  .00000444  00000-0  45981-4 0  9998,2 52354  53.2134 151.6251 0001478  55.0835 305.0296 15.08855648 47899,6917.833,95.437,540.72,538.675,0.0
52354.0,STARLINK-3876,PAYLOAD,2023-02-22 11:55:41,15.08841033,0.0001566,53.2151,147.4639,80.6206,279.4963,1.5449e-05,-4.2e-07,0.0,0 STARLINK-3876,1 52354U 22045Z   23053.49700292 -.00000042  00000-0  15449-4 0  9992,2 52354  53.2151 147.4639 0001566  80.6206 279.4963 15.08841033 48030,6917.877,95.437,540.826,538.659,0.0
52354.0,STARLINK-3876,PAYLOAD,2023-02-23 07:00:19,15.08832796,0.00016,53.2159,143.8948,86.1011,274.0164,-6.0629e-05,-1.253e-05,0.0,0 STARLINK-3876,1 52354U 22045Z   23054.29189202 -.00001253  00000-0 -60629-4 0  9999,2 52354  53.2159 143.8948 0001600  86.1011 274.0164 15.08832796 48158,6917.902,95.438,540.874,538.661,0.0
52354.0,STARLINK-3876,PAYLOAD,2023-02-23 11:46:28,15.08834376,0.0001527,53.2151,143.0025,83.4707,276.6459,-4.507e-05,-1.005e-05,0.0,0 STARLINK-3876,1 52354U 22045Z   23054.49061059 -.00001005  00000-0 -45070-4 0  9998,2 52354  53.2151 143.0025 0001527  83.4707 276.6459 15.08834376 48182,6917.898,95.438,540.819,538.706,0.0
52354.0,STARLINK-3876,PAYLOAD,2023-02-23 13:21:51,15.0883642,0.0001561,53.2151,142.7051,83.0512,277.0658,-2.7952e-05,-7.33e-06,0.0,0 STARLINK-3876,1 52354U 22045Z   23054.55684895 -.00000733  00000-0 -27952-4 0  9990,2 52354  53.2151 142.7051 0001561  83.0512 277.0658 15.08836420 48194,6917.891,95.438,540.836,538.676,0.0
52354.0,STARLINK-3876,PAYLOAD,2023-02-23 22:54:10,15.08839613,0.0001193,53.2135,140.9193,71.9803,288.1319,2.8581e-06,-2.42e-06,0.0,0 STARLINK-3876,1 52354U 22045Z   23054.95428545 -.00000242  00000-0  28581-5 0  9996,2 52354  53.2135 140.9193 0001193  71.9803 288.1319 15.08839613 48254,6917.882,95.438,540.572,538.921,0.0
52354.0,STARLINK-3876,PAYLOAD,2023-02-24 11:37:15,15.08841245,0.0001255,53.2136,138.5401,82.4058,277.7077,6.2279e-05,7.03e-06,0.0,0 STARLINK-3876,1 52354U 22045Z   23055.48420379  .00000703  00000-0  62279-4 0  9994,2 52354  53.2136 138.5401 0001255  82.4058 277.7077 15.08841245 48336,6917.877,95.437,540.61,538.873,0.0
52354.0,STARLINK-3876,PAYLOAD,2023-02-24 14:48:01,15.08846562,0.0001313,53.2137,137.945,84.3931,275.7211,8.7971e-05,1.113e-05,0.0,0 STARLINK-3876,1 52354U 22045Z   23055.61667928  .00001113  00000-0  87971-4 0  9994,2 52354  53.2137 137.9450 0001313  84.3931 275.7211 15.08846562 48357,6917.86,95.437,540.634,538.817,0.0
52354.0,STARLINK-3876,PAYLOAD,2023-02-24 22:44:57,15.08837028,0.0001228,53.2147,136.4593,87.7015,272.4117,6.4656e-05,7.41e-06,0.0,0 STARLINK-3876,1 52354U 22045Z   23055.94788573  .00000741  00000-0  64656-4 0  9991,2 52354  53.2147 136.4593 0001228  87.7015 272.4117 15.08837028 48407,6917.889,95.438,540.604,538.905,0.0
52354.0,STARLINK-3876,PAYLOAD,2023-02-25 05:06:30,15.08827923,0.0001442,53.2154,135.2704,88.5294,271.5863,5.2031e-05,5.4e-06,0.0,0 STARLINK-3876,1 52354U 22045Z   23056.21285422  .00000540  00000-0  52031-4 0  9998,2 52354  53.2154 135.2704 0001442  88.5294 271.5863 15.08827923 48447,6917.917,95.438,540.78,538.785,0.0
52354.0,STARLINK-3876,PAYLOAD,2023-02-25 11:28:02,15.08835043,0.0001301,53.2143,134.08,86.679,273.4351,1.8785e-05,1.1e-07,0.0,0 STARLINK-3876,1 52354U 22045Z   23056.47781171  .00000011  00000-0  18785-4 0  9999,2 52354  53.2143 134.0800 0001301  86.6790 273.4351 15.08835043 48482,6917.896,95.438,540.661,538.861,0.0
52354.0,STARLINK-3876,PAYLOAD,2023-02-25 14:38:48,15.08837452,0.0001216,53.2137,133.4847,95.6754,264.4376,6.1245e-05,6.87e-06,0.0,0 STARLINK-3876,1 52354U 22045Z   23056.61028840  .00000687  00000-0  61245-4 0  9990,2 52354  53.2137 133.4847 0001216  95.6754 264.4376 15.08837452 48500,6917.888,95.438,540.594,538.912,0.0
52354.0,STARLINK-3876,PAYLOAD,2023-02-26 08:08:02,15.08847831,0.0001084,53.2138,130.2137,86.7027,273.4089,0.00013284,1.827e-05,0.0,0 STARLINK-3876,1 52354U 22045Z   23057.33892020  .00001827  00000-0  13284-3 0  9995,2 52354  53.2138 130.2137 0001084  86.7027 273.4089 15.08847831 48610,6917.856,95.437,540.471,538.972,0.0
52354.0,STARLINK-3876,PAYLOAD,2023-02-26 14:29:34,15.08863412,0.0001426,53.2152,129.0229,105.0159,255.0991,0.00011223,1.5e-05,0.0,0 STARLINK-3876,1 52354U 22045Z   23057.60386854  .00001500  00000-0  11223-3 0  9997,2 52354  53.2152 129.0229 0001426 105.0159 255.0991 15.08863412 48650,6917.809,95.436,540.66,538.687,0.0
52354.0,STARLINK-3876,PAYLOAD,2023-02-27 04:48:04,15.08828776,0.0001251,53.2134,126.3469,109.9849,250.1278,3.5925e-05,2.84e-06,0.0,0 STARLINK-3876,1 52354U 22045Z   23058.20005396  .00000284  00000-0  35925-4 0  9997,2 52354  53.2134 126.3469 0001251 109.9849 250.1278 15.08828776 48749,6917.915,95.438,540.645,538.914,0.0
52354.0,STARLINK-3876,PAYLOAD,2023-02-27 14:20:22,15.08844133,0.0001761,53.2134,124.5598,127.8131,232.3021,7.7296e-05,9.42e-06,0.0,0 STARLINK-3876,1 52354U 22045Z   23058.59748365  .00000942  00000-0  77296-4 0  9997,2 52354  53.2134 124.5598 0001761 127.8131 232.3021 15.08844133 48801,6917.868,95.437,540.951,538.515,0.0
